CUTE-1 (CO-55)          
1 27844U 03031E   23141.94815992  .00000414  00000+0  20399-3 0  9994
2 27844  98.6781 149.5896 0009437 194.6070 165.4836 14.22766663 32009
CUBESAT XI-IV (CO-57)   
1 27848U 03031J   23141.73918882  .00000349  00000+0  17663-3 0  9994
2 27848  98.6818 149.8095 0009009 211.0697 148.9949 14.22278719 31743
CUBESAT XI-V            
1 28895U 05043F   23141.30924914  .00001910  00000+0  36011-3 0  9991
2 28895  98.1499 273.5822 0016982 153.3981 206.8097 14.65578146936871
CUTE-1.7+APD II (CO-65) 
1 32785U 08021C   23141.84370400  .00004692  00000+0  46636-3 0  9991
2 32785  97.7045 108.3699 0012044 182.7414 177.3741 14.92107257816893
AAUSAT-II               
1 32788U 08021F   23141.73143950  .00010348  00000+0  76368-3 0  9990
2 32788  97.5608 121.7538 0011001  87.4956 272.7529 15.03404616819130
DELFI-C3 (DO-64)        
1 32789U 08021G   23141.57465954  .00048974  00000+0  14850-2 0  9997
2 32789  97.3042 163.2947 0007164 189.4115 170.6994 15.33942743823308
SEEDS II (CO-66)        
1 32791U 08021J   23141.66152733  .00006804  00000+0  60389-3 0  9993
2 32791  97.6542 113.4639 0013592 134.8617 225.3711 14.96416439817772
SWISSCUBE               
1 35932U 09051B   23141.90103729  .00001246  00000+0  28363-3 0  9996
2 35932  98.5245  11.6325 0008798  87.2714 272.9490 14.57676209725381
BEESAT-1                
1 35933U 09051C   23141.86127590  .00001082  00000+0  24831-3 0  9998
2 35933  98.5174  12.9452 0007001  97.7289 262.4704 14.57590662725455
ITUPSAT1                
1 35935U 09051E   23141.88435860  .00001001  00000+0  23508-3 0  9995
2 35935  98.5274  12.9236 0009233 102.2627 257.9605 14.56643815725137
TISAT 1                 
1 36799U 10035E   23141.59531528  .00006118  00000+0  54916-3 0  9995
2 36799  98.1405  10.1890 0012907  66.4605 293.7970 14.96057624698259
M-CUBED & EXP-1 PRIME   
1 37855U 11061F   23141.77680572  .00027017  00000+0  87277-3 0  9990
2 37855 101.7063  88.6871 0123070 120.8126 240.5276 15.25004133632538
AEROCUBE 4.5A           
1 38767U 12048K   23141.69134210  .00006534  00000+0  44672-3 0  9996
2 38767  64.6625 125.2612 0128238 164.4076 196.1050 15.00472315201411
AEROCUBE 4.5B           
1 38768U 12048L   23141.15879097  .00013909  00000+0  80232-3 0  9993
2 38768  64.6654  72.1689 0108499 158.6178 201.9527 15.07687983201895
STRAND-1                
1 39090U 13009E   23141.86647695  .00000395  00000+0  15168-3 0  9996
2 39090  98.3898 335.9498 0008698 351.2996   8.8038 14.35584909535946
BRITE-AUSTRIA           
1 39091U 13009F   23141.79338384  .00000241  00000+0  98608-4 0  9992
2 39091  98.3926 335.1017 0010303 357.1152   2.9973 14.35476669535961
SOMP                    
1 39134U 13015E   23141.75424162  .00101402  00000+0  13448-2 0  9991
2 39134  64.8509  16.2798 0017359 252.1068 107.8185 15.57536136558860
BEESAT-3                
1 39135U 13015F   23141.18741034  .00047086  00000+0  11197-2 0  9995
2 39135  64.8605  67.5089 0020868 242.3190 117.5830 15.41153495557776
BEESAT-2                
1 39136U 13015G   23141.83138869  .00039797  00000+0  10327-2 0  9998
2 39136  64.8696  76.4992 0026324 276.8046  83.0095 15.38423680557620
NEE-01 PEGASO           
1 39151U 13018B   23141.26264034  .00002976  00000+0  37524-3 0  9997
2 39151  98.0066 251.3932 0015109 236.3620 123.6152 14.82661129543690
ESTCUBE 1               
1 39161U 13021C   23141.75050309  .00002069  00000+0  32021-3 0  9994
2 39161  97.8722 214.7665 0010431  60.8571 299.3681 14.74230237539237
POPACS 1                
1 39268U 13055D   23141.66270473  .00020316  00000+0  46478-3 0  9991
2 39268  80.9955 231.9325 0510888 248.5915 106.0068 14.65383136502553
POPACS 2                
1 39269U 13055E   23141.44947795  .00015531  00000+0  39506-3 0  9993
2 39269  81.0062 300.6158 0608671  67.1849 299.2436 14.42647737498724
POPACS 3                
1 39270U 13055F   23141.27036646  .00013341  00000+0  38940-3 0  9998
2 39270  81.0115 340.5393 0664310 179.6405 180.5409 14.27992866476725
ZACUBE-1 (TSHEPISOSAT)  
1 39417U 13066B   23141.47976141  .00004722  00000+0  54724-3 0  9999
2 39417  97.6841 104.0888 0055595  17.2352 343.0734 14.84801258513238
WNISAT-1                
1 39423U 13066H   23141.93463177  .00001060  00000+0  21449-3 0  9997
2 39423  97.7066   2.6722 0173298 158.8141 202.0350 14.54133978503415
TRITON-1                
1 39427U 13066M   23141.77690315  .00002693  00000+0  41083-3 0  9998
2 39427  97.8356  68.6396 0106635 262.2718  96.6370 14.70905137508474
DELFI-N3XT              
1 39428U 13066N   23141.74155260  .00005250  00000+0  76091-3 0  9990
2 39428  97.8338  67.5195 0109295 274.5427  84.3303 14.72443954508249
GOMX-1                  
1 39430U 13066Q   23141.83430055  .00003230  00000+0  56376-3 0  9991
2 39430  97.7827  34.5089 0147195  57.0732 304.4530 14.61709279505501
CUBEBUG-2 (LO-74)       
1 39440U 13066AA  23141.78977896  .00003711  00000+0  48168-3 0  9999
2 39440  97.7715  91.4106 0077210 112.5800 248.3604 14.79242698510255
NEE-02 KRYSAOR          
1 39441U 13066AB  23141.79871328  .00002450  00000+0  33441-3 0  9991
2 39441  97.7824  88.2905 0079646 128.7401 232.0964 14.77324504509958
FUNCUBE-1 (AO-73)       
1 39444U 13066AE  23141.80937875  .00006061  00000+0  67391-3 0  9999
2 39444  97.6706 106.9304 0053342   1.9921 358.1498 14.86471076511721
UWE-3                   
1 39446U 13066AG  23141.42318501  .00004653  00000+0  57179-3 0  9996
2 39446  97.7337  97.2366 0067424  67.2173 293.6146 14.81877607510462
BRITE-CA1 (TORONTO)     
1 40020U 14033L   23141.36835403  .00001077  00000+0  18701-3 0  9994
2 40020  97.8225 289.1657 0084064 265.6752  93.4845 14.67916788477327
DUCHIFAT-1              
1 40021U 14033M   23141.83257577  .00009306  00000+0  80004-3 0  9995
2 40021  98.0560 104.9523 0010988  11.6471 348.5002 14.97602170485249
NANOSATC-BR1            
1 40024U 14033Q   23141.76276665  .00008324  00000+0  75306-3 0  9997
2 40024  98.0278  96.2348 0011408  21.2902 338.8790 14.95640563484465
QB50P1                  
1 40025U 14033R   23141.80949501  .00006394  00000+0  60891-3 0  9997
2 40025  97.9967  88.1051 0012198  30.6375 329.5554 14.93698477484207
QB50P2                  
1 40032U 14033Y   23141.71686818  .00006123  00000+0  59575-3 0  9991
2 40032  97.9675  81.9404 0011649  29.3636 330.8235 14.92868020484022
PERSEUS-M2              
1 40037U 14033AD  23141.78569201  .00001891  00000+0  21002-3 0  9990
2 40037  97.9084  67.5108 0015166  51.4735 308.7839 14.88331388483420
PERSEUS-M1              
1 40039U 14033AF  23141.73351499  .00002078  00000+0  23212-3 0  9998
2 40039  97.8943  64.5221 0014989  51.0491 309.2059 14.87982442483281
POLYITAN-1              
1 40042U 14033AJ  23141.75886121  .00007081  00000+0  66064-3 0  9990
2 40042  98.0082  89.8656 0013773  21.5714 338.6083 14.94458294484098
TIGRISAT                
1 40043U 14033AK  23141.75430476  .00002726  00000+0  38813-3 0  9991
2 40043  97.6640 318.1282 0058863 138.4937 222.0767 14.76407181479516
AEROCUBE 6A             
1 40045U 14033AM  23141.77158602  .00004977  00000+0  66947-3 0  9992
2 40045  97.6577 327.7999 0056178 123.7785 236.8795 14.78561429479728
AEROCUBE 6B             
1 40046U 14033AN  23141.75107997  .00005095  00000+0  67378-3 0  9993
2 40046  97.6517 326.2329 0054804 121.1105 239.5501 14.79320618479747
UKUBE-1                 
1 40074U 14037F   23141.96193458  .00005246  00000+0  57654-3 0  9992
2 40074  98.3475  45.0756 0002331 278.2714  81.8236 14.88100886480352
BRITE-PL2 (HEWELIUSZ)   
1 40119U 14049B   23141.78966711  .00002280  00000+0  26347-3 0  9995
2 40119  97.8797 239.1299 0016063 209.7011 150.3294 14.86486469474246
FIREBIRD 4              
1 40378U 15003C   23141.43728615  .00130874  00000+0  11926-2 0  9991
2 40378  99.0784  92.9113 0040085 300.3340  59.3952 15.66428817460467
GRIFEX                  
1 40379U 15003D   23141.79319063  .00046553  00000+0  10578-2 0  9996
2 40379  99.0789  72.2255 0083748   3.8499 356.3367 15.39184534459311
CP10 (EXOCUBE)          
1 40380U 15003E   23141.73744324  .00031811  00000+0  90434-3 0  9995
2 40380  99.0850  62.3447 0100417  36.2722 324.5266 15.31124621458673
EXACTVIEW 9             
1 40936U 15052G   23140.04800811  .00002258  00000+0  21516-3 0  9991
2 40936   6.0040 289.4025 0010790 249.7857 110.1110 14.78456733413082
AEROCUBE 5C             
1 40965U 15058B   23141.94953585  .00003620  00000+0  40794-3 0  9999
2 40965  64.7714 121.7764 0161846  81.8955 280.0476 14.79137284198961
AEROCUBE 7              
1 40966U 15058C   23141.36647857  .00004407  00000+0  48457-3 0  9996
2 40966  64.7705 119.8617 0159350  81.8161 280.0984 14.80035432198893
ATHENOXAT 1             
1 41168U 15077C   23141.89044936  .00140623  00000+0  21209-2 0  9995
2 41168  14.9878  67.0479 0004742 348.2374  11.7841 15.52831676412216
GALASSIA                
1 41170U 15077E   23141.90062283  .00049994  00000+0  12802-2 0  9993
2 41170  14.9880  73.0869 0007090  15.2460 344.8077 15.37456336412005
VELOX-II                
1 41171U 15077F   23141.42362296  .00022959  00000+0  82063-3 0  9997
2 41171  14.9887 174.7259 0006695 171.0638 188.9804 15.26438972411102
HORYU-4                 
1 41340U 16012D   23141.90795920  .00008136  00000+0  51544-3 0  9993
2 41340  31.0054 352.3115 0012000 339.0250  20.9894 15.07570175398754
E-ST@R-II               
1 41459U 16025D   23141.78218893  .00034438  00000+0  10338-2 0  9992
2 41459  98.1877 340.4366 0110306 190.5345 169.3581 15.28479452388862
AAUSAT 4                
1 41460U 16025E   23141.86502859  .00117628  00000+0  17955-2 0  9996
2 41460  98.1631 352.2262 0066427 147.7438 212.7902 15.51472561389680
BEESAT-4                
1 41619U 16040W   23141.65762980  .00073325  00000+0  10462-2 0  9990
2 41619  97.1600 191.0889 0002586 337.3495  22.7646 15.56040795372749
